[{"OBJECT_NAME":"YAOGAN-37","OBJECT_ID":"2023-006C","EPOCH":"2026-03-09T23:15:16.754688","MEAN_MOTION":15.16132405,"ECCENTRICITY":0.00165574,"INCLINATION":43.1974,"RA_OF_ASC_NODE":311.9793,"ARG_OF_PERICENTER":108.2694,"MEAN_ANOMALY":251.9959,"EPHEMERIS_TYPE":0,"CLASSIFICATION_TYPE":"U","NORAD_CAT_ID":55244,"ELEMENT_SET_NO":999,"REV_AT_EPOCH":17481,"BSTAR":0.00034068516,"MEAN_MOTION_DOT":6.475e-5,"MEAN_MOTION_DDOT":0},{"OBJECT_NAME":"COSMOS 2251 DEB","OBJECT_ID":"1993-036ACF","EPOCH":"2026-03-09T11:56:10.819680","MEAN_MOTION":15.13547033,"ECCENTRICITY":0.00020959,"INCLINATION":74.0129,"RA_OF_ASC_NODE":232.1639,"ARG_OF_PERICENTER":259.3269,"MEAN_ANOMALY":157.2039,"EPHEMERIS_TYPE":0,"CLASSIFICATION_TYPE":"U","NORAD_CAT_ID":34861,"ELEMENT_SET_NO":999,"REV_AT_EPOCH":89400,"BSTAR":0.0023959173,"MEAN_MOTION_DOT":0.00043182,"MEAN_MOTION_DDOT":0}]
